EARTHCARE               
1 59908U 24101A   24232.60283804  .00026088  00000+0  36748-3 0  9997
2 59908  96.9864 358.8844 0003175 210.5819 149.5252 15.56608362 12842
